{
  "links" : {
    "next" : "https://api.nasa.gov/neo/rest/v1/feed?start_date=1997-04-23&end_date=1997-04-23&detailed=true&api_key=t0TVs3DtDT2H8Oy2Zy8m2eVrNsAVKAexjcZXUckd",
    "prev" : "https://api.nasa.gov/neo/rest/v1/feed?start_date=1997-04-21&end_date=1997-04-21&detailed=true&api_key=t0TVs3DtDT2H8Oy2Zy8m2eVrNsAVKAexjcZXUckd",
    "self" : "https://api.nasa.gov/neo/rest/v1/feed?start_date=1997-04-22&end_date=1997-04-22&detailed=true&api_key=t0TVs3DtDT2H8Oy2Zy8m2eVrNsAVKAexjcZXUckd"
  },
  "element_count" : 5,
  "near_earth_objects" : {
    "1997-04-22" : [ {
      "links" : {
        "self" : "https://api.nasa.gov/neo/rest/v1/neo/3774009?api_key=t0TVs3DtDT2H8Oy2Zy8m2eVrNsAVKAexjcZXUckd"
      },
      "neo_reference_id" : "3774009",
      "name" : "(2017 HA1)",
      "nasa_jpl_url" : "http://ssd.jpl.nasa.gov/sbdb.cgi?sstr=3774009",
      "absolute_magnitude_h" : 23.174,
      "estimated_diameter" : {
        "kilometers" : {
          "estimated_diameter_min" : 0.0616247225,
          "estimated_diameter_max" : 0.1377970686
        },
        "meters" : {
          "estimated_diameter_min" : 61.6247224961,
          "estimated_diameter_max" : 137.7970685958
        },
        "miles" : {
          "estimated_diameter_min" : 0.0382918154,
          "estimated_diameter_max" : 0.0856231023
        },
        "feet" : {
          "estimated_diameter_min" : 202.180854554,
          "estimated_diameter_max" : 452.0901345318
        }
      },
      "is_potentially_hazardous_asteroid" : false,
      "close_approach_data" : [ {
        "close_approach_date" : "1997-04-22",
        "epoch_date_close_approach" : 861692400000,
        "relative_velocity" : {
          "kilometers_per_second" : "10.1287175972",
          "kilometers_per_hour" : "36463.3833498955",
          "miles_per_hour" : "22656.9283931615"
        },
        "miss_distance" : {
          "astronomical" : "0.1784087129",
          "lunar" : "69.4009857178",
          "kilometers" : "26689564",
          "miles" : "16584126"
        },
        "orbiting_body" : "Earth"
      } ],
      "orbital_data" : {
        "orbit_id" : "14",
        "orbit_determination_date" : "2017-06-24 06:19:51",
        "orbit_uncertainty" : "6",
        "minimum_orbit_intersection" : ".0952113",
        "jupiter_tisserand_invariant" : "4.662",
        "epoch_osculation" : "2458000.5",
        "eccentricity" : ".2231245053696101",
        "semi_major_axis" : "1.406027092132615",
        "inclination" : "18.49508982871804",
        "ascending_node_longitude" : "207.6823375302296",
        "orbital_period" : "608.9602716877233",
        "perihelion_distance" : "1.092307992664254",
        "perihelion_argument" : "15.72824993900821",
        "aphelion_distance" : "1.719746191600976",
        "perihelion_time" : "2457882.400086695763",
        "mean_anomaly" : "69.81731118795805",
        "mean_motion" : ".5911715701949914",
        "equinox" : "J2000"
      }
    }, {
      "links" : {
        "self" : "https://api.nasa.gov/neo/rest/v1/neo/3717054?api_key=t0TVs3DtDT2H8Oy2Zy8m2eVrNsAVKAexjcZXUckd"
      },
      "neo_reference_id" : "3717054",
      "name" : "(2015 HW10)",
      "nasa_jpl_url" : "http://ssd.jpl.nasa.gov/sbdb.cgi?sstr=3717054",
      "absolute_magnitude_h" : 25.7,
      "estimated_diameter" : {
        "kilometers" : {
          "estimated_diameter_min" : 0.0192555078,
          "estimated_diameter_max" : 0.0430566244
        },
        "meters" : {
          "estimated_diameter_min" : 19.2555078188,
          "estimated_diameter_max" : 43.0566244241
        },
        "miles" : {
          "estimated_diameter_min" : 0.0119648141,
          "estimated_diameter_max" : 0.0267541378
        },
        "feet" : {
          "estimated_diameter_min" : 63.1742402722,
          "estimated_diameter_max" : 141.2618956756
        }
      },
      "is_potentially_hazardous_asteroid" : false,
      "close_approach_data" : [ {
        "close_approach_date" : "1997-04-22",
        "epoch_date_close_approach" : 861692400000,
        "relative_velocity" : {
          "kilometers_per_second" : "11.9578079631",
          "kilometers_per_hour" : "43048.1086672864",
          "miles_per_hour" : "26748.4206327369"
        },
        "miss_distance" : {
          "astronomical" : "0.2135114162",
          "lunar" : "83.0559463501",
          "kilometers" : "31940854",
          "miles" : "19847126"
        },
        "orbiting_body" : "Earth"
      } ],
      "orbital_data" : {
        "orbit_id" : "5",
        "orbit_determination_date" : "2017-04-06 08:34:09",
        "orbit_uncertainty" : "5",
        "minimum_orbit_intersection" : ".0130673",
        "jupiter_tisserand_invariant" : "6.378",
        "epoch_osculation" : "2458000.5",
        "eccentricity" : ".1058400345108555",
        "semi_major_axis" : ".9343803819397701",
        "inclination" : "16.10752297279969",
        "ascending_node_longitude" : "32.59949558269044",
        "orbital_period" : "329.9012750923198",
        "perihelion_distance" : ".8354855300689986",
        "perihelion_argument" : "330.5789839703661",
        "aphelion_distance" : "1.033275233810542",
        "perihelion_time" : "2457929.042721933380",
        "mean_anomaly" : "77.97672226875825",
        "mean_motion" : "1.091235551906422",
        "equinox" : "J2000"
      }
    } ]
  }
}